0 COSMOS 2378
1 26818U 01023A   13281.50665537  .00000019  00000-0  48181-5 0  5064
2 26818 082.9252 055.8273 0033024 352.4027 007.6606 13.73818214618480
0 COSMOS 2378
1 26818U 01023A   13282.52628327  .00000033  00000-0  18865-4 0  5075
2 26818 082.9251 055.0719 0032911 349.5293 010.5186 13.73818381618629
0 COSMOS 2378
1 26818U 01023A   13282.96326629  .00000017  00000-0  21606-5 0  5084
2 26818 082.9249 054.7478 0032955 348.2738 011.7638 13.73818258618686
0 COSMOS 2378
1 26818U 01023A   13284.49270771  .00000019  00000-0  45700-5 0  5094
2 26818 082.9250 053.6139 0032857 344.0012 016.0096 13.73818305618892
0 COSMOS 2378
1 26818U 01023A   13285.51233496  .00000069  00000-0  57845-4 0  5100
2 26818 082.9249 052.8580 0032741 341.1438 018.8533 13.73818936619036
0 COSMOS 2378
1 26818U 01023A   13286.82328402  .00000062  00000-0  49685-4 0  5114
2 26818 082.9257 051.8873 0032687 337.4082 022.5631 13.73818957619215
0 COSMOS 2378
1 26818U 01023A   13287.47875879  .00000054  00000-0  41468-4 0  5124
2 26818 082.9257 051.4007 0032721 335.7039 024.2565 13.73818974619306
0 COSMOS 2378
1 26818U 01023A   13288.78970822  .00000075  00000-0  64089-4 0  5131
2 26818 082.9255 050.4296 0032657 331.9972 027.9429 13.73819297619482
0 COSMOS 2378
1 26818U 01023A   13289.80933525  .00000082  00000-0  71659-4 0  5144
2 26818 082.9262 049.6747 0032602 329.0472 030.8765 13.73819536619622
0 COSMOS 2378
1 26818U 01023A   13290.31914866  .00000091  00000-0  80992-4 0  5150
2 26818 082.9258 049.2962 0032615 327.7107 032.2049 13.73819692619697
0 COSMOS 2378
1 26818U 01023A   13291.33877638  .00000071  00000-0  59990-4 0  5161
2 26818 082.9258 048.5405 0032535 324.9243 034.9766 13.73819594619834
0 COSMOS 2378
1 26818U 01023A   13292.43123454  .00000054  00000-0  41558-4 0  5176
2 26818 082.9274 047.7329 0032386 321.6731 038.2128 13.73819578619985
0 COSMOS 2378
1 26818U 01023A   13293.45086206  .00000037  00000-0  23524-4 0  5187
2 26818 082.9281 046.9780 0032332 318.8350 041.0354 13.73819482620126
0 COSMOS 2378
1 26818U 01023A   13293.88784567  .00000043  00000-0  29679-4 0  5194
2 26818 082.9279 046.6540 0032336 317.6323 042.2336 13.73819532620180
0 COSMOS 2378
1 26818U 01023A   13294.90747290  .00000045  00000-0  32694-4 0  5205
2 26818 082.9287 045.9005 0032192 314.4717 045.3806 13.73819695620321
